{"errNum":0,"errMsg":"success","retData":[{"province_cn":"\u91cd\u5e86","district_cn":"\u91cd\u5e86","name_cn":"\u91cd\u5e86","name_en":"chongqing","area_id":"101040100"},{"province_cn":"\u91cd\u5e86","district_cn":"\u91cd\u5e86","name_cn":"\u6c38\u5ddd","name_en":"yongchuan","area_id":"101040200"},{"province_cn":"\u91cd\u5e86","district_cn":"\u91cd\u5e86","name_cn":"\u5408\u5ddd","name_en":"hechuan","area_id":"101040300"},{"province_cn":"\u91cd\u5e86","district_cn":"\u91cd\u5e86","name_cn":"\u5357\u5ddd","name_en":"nanchuan","area_id":"101040400"},{"province_cn":"\u91cd\u5e86","district_cn":"\u91cd\u5e86","name_cn":"\u6c5f\u6d25","name_en":"jiangjin","area_id":"101040500"},{"province_cn":"\u91cd\u5e86","district_cn":"\u91cd\u5e86","name_cn":"\u4e07\u76db","name_en":"wansheng","area_id":"101040600"},{"province_cn":"\u91cd\u5e86","district_cn":"\u91cd\u5e86","name_cn":"\u6e1d\u5317","name_en":"yubei","area_id":"101040700"},{"province_cn":"\u91cd\u5e86","district_cn":"\u91cd\u5e86","name_cn":"\u5317\u789a","name_en":"beibei","area_id":"101040800"},{"province_cn":"\u91cd\u5e86","district_cn":"\u91cd\u5e86","name_cn":"\u5df4\u5357","name_en":"banan","area_id":"101040900"},{"province_cn":"\u91cd\u5e86","district_cn":"\u91cd\u5e86","name_cn":"\u957f\u5bff","name_en":"changshou","area_id":"101041000"},{"province_cn":"\u91cd\u5e86","district_cn":"\u91cd\u5e86","name_cn":"\u9ed4\u6c5f","name_en":"qianjiang","area_id":"101041100"},{"province_cn":"\u91cd\u5e86","district_cn":"\u91cd\u5e86","name_cn":"\u4e07\u5dde","name_en":"wanzhou","area_id":"101041300"},{"province_cn":"\u91cd\u5e86","district_cn":"\u91cd\u5e86","name_cn":"\u6daa\u9675","name_en":"fuling","area_id":"101041400"},{"province_cn":"\u91cd\u5e86","district_cn":"\u91cd\u5e86","name_cn":"\u5f00\u53bf","name_en":"kaixian","area_id":"101041500"},{"province_cn":"\u91cd\u5e86","district_cn":"\u91cd\u5e86","name_cn":"\u57ce\u53e3","name_en":"chengkou","area_id":"101041600"},{"province_cn":"\u91cd\u5e86","district_cn":"\u91cd\u5e86","name_cn":"\u4e91\u9633","name_en":"yunyang","area_id":"101041700"},{"province_cn":"\u91cd\u5e86","district_cn":"\u91cd\u5e86","name_cn":"\u5deb\u6eaa","name_en":"wuxi","area_id":"101041800"},{"province_cn":"\u91cd\u5e86","district_cn":"\u91cd\u5e86","name_cn":"\u5949\u8282","name_en":"fengjie","area_id":"101041900"},{"province_cn":"\u91cd\u5e86","district_cn":"\u91cd\u5e86","name_cn":"\u5deb\u5c71","name_en":"wushan","area_id":"101042000"},{"province_cn":"\u91cd\u5e86","district_cn":"\u91cd\u5e86","name_cn":"\u6f7c\u5357","name_en":"tongnan","area_id":"101042100"},{"province_cn":"\u91cd\u5e86","district_cn":"\u91cd\u5e86","name_cn":"\u57ab\u6c5f","name_en":"dianjiang","area_id":"101042200"},{"province_cn":"\u91cd\u5e86","district_cn":"\u91cd\u5e86","name_cn":"\u6881\u5e73","name_en":"liangping","area_id":"101042300"},{"province_cn":"\u91cd\u5e86","district_cn":"\u91cd\u5e86","name_cn":"\u5fe0\u53bf","name_en":"zhongxian","area_id":"101042400"},{"province_cn":"\u91cd\u5e86","district_cn":"\u91cd\u5e86","name_cn":"\u77f3\u67f1","name_en":"shizhu","area_id":"101042500"},{"province_cn":"\u91cd\u5e86","district_cn":"\u91cd\u5e86","name_cn":"\u5927\u8db3","name_en":"dazu","area_id":"101042600"},{"province_cn":"\u91cd\u5e86","district_cn":"\u91cd\u5e86","name_cn":"\u8363\u660c","name_en":"rongchang","area_id":"101042700"},{"province_cn":"\u91cd\u5e86","district_cn":"\u91cd\u5e86","name_cn":"\u94dc\u6881","name_en":"tongliang","area_id":"101042800"},{"province_cn":"\u91cd\u5e86","district_cn":"\u91cd\u5e86","name_cn":"\u74a7\u5c71","name_en":"bishan","area_id":"101042900"},{"province_cn":"\u91cd\u5e86","district_cn":"\u91cd\u5e86","name_cn":"\u4e30\u90fd","name_en":"fengdu","area_id":"101043000"},{"province_cn":"\u91cd\u5e86","district_cn":"\u91cd\u5e86","name_cn":"\u6b66\u9686","name_en":"wulong","area_id":"101043100"},{"province_cn":"\u91cd\u5e86","district_cn":"\u91cd\u5e86","name_cn":"\u5f6d\u6c34","name_en":"pengshui","area_id":"101043200"},{"province_cn":"\u91cd\u5e86","district_cn":"\u91cd\u5e86","name_cn":"\u7da6\u6c5f","name_en":"qijiang","area_id":"101043300"},{"province_cn":"\u91cd\u5e86","district_cn":"\u91cd\u5e86","name_cn":"\u9149\u9633","name_en":"youyang","area_id":"101043400"},{"province_cn":"\u91cd\u5e86","district_cn":"\u91cd\u5e86","name_cn":"\u79c0\u5c71","name_en":"xiushan","area_id":"101043600"}]}